     2.100          NAVIGATION                              RINEX VERSION / TYPE
fic2rin                                 03/29/2013 00:20:36 PGM / RUN BY / DATE
                                                            END OF HEADER
18 13  3 28 14  0  0.0  .246086157858D-03  .181898940355D-11  .000000000000D+00
     .700000000000D+01  .122843750000D+03  .502699510881D-08 -.310823492491D+01
     .616721808910D-05  .139210826019D-01  .108778476715D-04  .515378084755D+04
     .396000000000D+06  .102445483208D-06  .709846189292D+00 -.188127160072D-06
     .927972387809D+00  .149531250000D+03 -.212008233124D+01 -.811748098281D-08
     .312155859687D-09  .100000000000D+01  .173300000000D+04  .000000000000D+00
     .240000000000D+01  .000000000000D+00 -.107102096081D-07  .700000000000D+01
     .388806000000D+06  .400000000000D+01
19 13  3 28 14  0  0.0 -.360148493201D-03 -.318323145621D-11  .000000000000D+00
     .600000000000D+02 -.875000000000D+00  .506056793582D-08  .101646408152D+01
    -.353902578354D-07  .905752915423D-02  .366941094398D-05  .515367144775D+04
     .396000000000D+06 -.242143869400D-07 -.129466767494D+01  .130385160446D-06
     .961830621729D+00  .308687500000D+03  .283338988858D+00 -.851392606777D-08
    -.303584074067D-10  .100000000000D+01  .173300000000D+04  .000000000000D+00
     .240000000000D+01  .000000000000D+00 -.149011611938D-07  .600000000000D+02
     .388806000000D+06  .400000000000D+01
20 13  3 28 14  0  0.0  .902581959963D-04  .181898940355D-11  .000000000000D+00
     .580000000000D+02  .107656250000D+03  .508735476589D-08 -.253980077694D+01
     .561773777008D-05  .552055204753D-02  .119600445032D-04  .515378570938D+04
     .396000000000D+06  .113621354103D-06  .656356822136D+00  .111758708954D-07
     .928719489832D+00  .131000000000D+03  .129473551777D+01 -.826784438891D-08
     .335013954676D-09  .100000000000D+01  .173300000000D+04  .000000000000D+00
     .240000000000D+01  .000000000000D+00 -.791624188423D-08  .580000000000D+02
     .388806000000D+06  .400000000000D+01
21 13  3 28 14  0  0.0 -.288666691631D-03 -.216004991671D-11  .000000000000D+00
     .900000000000D+01 -.509062500000D+02  .510806991447D-08 -.200835132218D+01
    -.288337469101D-05  .201377656776D-01  .967271625996D-05  .515371312332D+04
     .396000000000D+06  .281259417534D-06 -.337842405475D+00  .000000000000D+00
     .931878225474D+00  .168125000000D+03 -.215766473473D+01 -.805569269479D-08
    -.294297972978D-09  .100000000000D+01  .173300000000D+04  .000000000000D+00
     .240000000000D+01  .000000000000D+00 -.111758708954D-07  .900000000000D+01
     .388806000000D+06  .400000000000D+01
22 13  3 28 14  0  0.0  .162584707141D-03  .125055521494D-11  .000000000000D+00
     .760000000000D+02  .128000000000D+03  .514235705696D-08  .259566173765D+01
     .653602182865D-05  .634950294625D-02  .109281390905D-04  .515366359711D+04
     .396000000000D+06  .670552253723D-07  .712571566174D+00 -.745058059692D-07
     .925712341760D+00  .150687500000D+03 -.204112425668D+01 -.827355891265D-08
     .327156484524D-09  .100000000000D+01  .173300000000D+04  .000000000000D+00
     .340000000000D+01  .000000000000D+00 -.172294676304D-07  .760000000000D+02
     .388806000000D+06  .400000000000D+01
23 13  3 28 14  0  0.0  .100646633655D-03 -.363797880709D-11  .000000000000D+00
     .230000000000D+02  .253750000000D+02  .520628829138D-08  .551258414469D+00
     .128522515297D-05  .828981935047D-02  .936910510063D-06  .515373113441D+04
     .396000000000D+06  .558793544769D-08  .176837911636D+01  .596046447754D-07
     .956105692246D+00  .353312500000D+03 -.291134193047D+01 -.887822695665D-08
    -.746459664470D-10  .100000000000D+01  .173300000000D+04  .000000000000D+00
     .240000000000D+01  .000000000000D+00 -.200234353542D-07  .230000000000D+02
     .388806000000D+06  .400000000000D+01
24 13  3 28 14  0  0.0 -.349013134837D-05 -.682121026330D-12  .000000000000D+00
     .133000000000D+03 -.113906250000D+03  .444875673715D-08 -.300400617669D+00
    -.610202550888D-05  .843134825118D-03  .895187258720D-05  .515369551659D+04
     .396000000000D+06 -.223517417908D-07  .279511540341D+01  .447034835815D-07
     .959309861735D+00  .204968750000D+03  .304782393787D+00 -.812819571483D-08
    -.530022077547D-09  .100000000000D+01  .173300000000D+04  .000000000000D+00
     .340000000000D+01  .000000000000D+00  .325962901115D-08  .133000000000D+03
     .388806000000D+06  .400000000000D+01
25 13  3 28 14  0  0.0  .819885171950D-04  .352429196937D-11  .000000000000D+00
     .250000000000D+02  .343125000000D+02  .393373528444D-08 -.220338386225D+01
     .179000198841D-05  .237232330255D-02  .121165066957D-04  .515356810379D+04
     .396000000000D+06 -.143423676491D-06 -.244043298658D+01  .186264514923D-07
     .972369246579D+00  .153125000000D+03  .565698611115D+00 -.765067582421D-08
     .555023118941D-09  .100000000000D+01  .173300000000D+04  .000000000000D+00
     .240000000000D+01  .000000000000D+00  .558793544769D-08  .250000000000D+02
     .388806000000D+06  .400000000000D+01
26 13  3 28 14  0  0.0 -.492311082780D-04  .147792889038D-10  .000000000000D+00
     .890000000000D+02  .178125000000D+01  .469233831187D-08  .475690058606D+00
     .288709998131D-06  .212901836494D-01  .233389437199D-05  .515365778732D+04
     .396000000000D+06 -.232830643654D-06  .184772654804D+01  .800937414169D-07
     .979309032975D+00  .346218750000D+03  .122783658560D+01 -.879393773138D-08
    -.216794744657D-09  .100000000000D+01  .173300000000D+04  .000000000000D+00
     .240000000000D+01  .000000000000D+00 -.605359673500D-08  .890000000000D+02
     .388806000000D+06  .400000000000D+01
28 13  3 28 14  0  0.0  .244928989559D-03  .329691829393D-11  .000000000000D+00
     .160000000000D+02  .249062500000D+02  .368372487050D-08  .248110053655D+01
     .127404928207D-05  .186128595378D-01  .115651637316D-04  .515364062309D+04
     .396000000000D+06  .227242708206D-06 -.237820824153D+01 -.152736902237D-06
     .982636026140D+00  .163562500000D+03 -.177377486587D+01 -.727673167651D-08
     .538951020902D-09  .100000000000D+01  .173300000000D+04  .000000000000D+00
     .240000000000D+01  .000000000000D+00 -.107102096081D-07  .160000000000D+02
     .388806000000D+06  .400000000000D+01
29 13  3 28 14  0  0.0  .421097036451D-03  .363797880709D-11  .000000000000D+00
     .560000000000D+02  .531250000000D+00  .492020494629D-08 -.171159526208D+01
     .139698386192D-06  .196743686683D-02  .369362533092D-05  .515366433907D+04
     .396000000000D+06 -.167638063431D-07 -.133806796612D+01  .242143869400D-07
     .965183593394D+00  .311281250000D+03 -.107739092273D+01 -.840106422376D-08
     .135005623526D-09  .100000000000D+01  .173300000000D+04  .000000000000D+00
     .240000000000D+01  .000000000000D+00 -.977888703346D-08  .560000000000D+02
     .388806000000D+06  .400000000000D+01
31 13  3 28 14  0  0.0  .308373011649D-03  .159161572810D-11  .000000000000D+00
     .800000000000D+02 -.118312500000D+03  .393337812670D-08 -.112619410246D+01
    -.621005892754D-05  .799361325335D-02  .103488564491D-04  .515356947136D+04
     .396000000000D+06 -.596046447754D-07  .282688406220D+01 -.149011611938D-07
     .980791415179D+00  .192093750000D+03 -.751347228056D+00 -.797497504686D-08
    -.438232539859D-09  .100000000000D+01  .173300000000D+04  .000000000000D+00
     .340000000000D+01  .000000000000D+00 -.130385160446D-07  .800000000000D+02
     .388806000000D+06  .400000000000D+01
32 13  3 28 14  0  0.0 -.546476338059D-03 -.272848410532D-11  .000000000000D+00
     .790000000000D+02  .117468750000D+03  .483770150969D-08 -.549086254686D+00
     .609643757343D-05  .115880882367D-01  .102743506432D-04  .515373622131D+04
     .396000000000D+06  .894069671631D-07  .794876254564D+00 -.208616256714D-06
     .949837679295D+00  .178625000000D+03 -.380496260259D+00 -.835713382245D-08
     .475019786481D-09  .100000000000D+01  .173300000000D+04  .000000000000D+00
     .240000000000D+01  .000000000000D+00 -.325962901115D-08  .790000000000D+02
     .388806000000D+06  .400000000000D+01
24 13  3 28 13 59 44.0 -.348640605807D-05 -.682121026330D-12  .000000000000D+00
     .170000000000D+02 -.113906250000D+03  .444875673715D-08 -.302725909864D+00
    -.610202550888D-05  .843116664328D-03  .895187258720D-05  .515369550896D+04
     .395984000000D+06 -.223517417908D-07  .279511552337D+01  .447034835815D-07
     .959309883679D+00  .204968750000D+03  .304773989323D+00 -.812819571483D-08
    -.530022077547D-09  .100000000000D+01  .173300000000D+04  .000000000000D+00
     .240000000000D+01  .000000000000D+00  .325962901115D-08  .170000000000D+02
     .391626000000D+06  .400000000000D+01
31 13  3 28 13 59 44.0  .308372545987D-03  .159161572810D-11  .000000000000D+00
     .100000000000D+01 -.118312500000D+03  .393302096897D-08 -.112852768355D+01
    -.621005892754D-05  .799361476675D-02  .103488564491D-04  .515356946564D+04
     .395984000000D+06 -.596046447754D-07  .282688420703D+01 -.149011611938D-07
     .980791421031D+00  .192093750000D+03 -.751347448957D+00 -.797497504686D-08
    -.438232539859D-09  .100000000000D+01  .173300000000D+04  .000000000000D+00
     .240000000000D+01  .000000000000D+00 -.130385160446D-07  .100000000000D+01
     .395406000000D+06  .400000000000D+01
24 13  3 28 15 59 44.0 -.349106267095D-05 -.682121026330D-12  .000000000000D+00
     .180000000000D+02 -.111875000000D+03  .452947438507D-08  .747747324597D+00
    -.574626028538D-05  .844076741487D-03  .833347439766D-05  .515369717407D+04
     .403184000000D+06  .111758708954D-07  .279505656631D+01 -.242143869400D-07
     .959305941114D+00  .214093750000D+03  .304467134941D+00 -.818819821418D-08
    -.491806199988D-09  .100000000000D+01  .173300000000D+04  .000000000000D+00
     .240000000000D+01  .000000000000D+00  .325962901115D-08  .180000000000D+02
     .396006000000D+06  .400000000000D+01
